[{"OBJECT_NAME":"PRAETORIAN SDA_609","OBJECT_ID":"2025-203H","EPOCH":"2026-03-09T13:17:17.896704","MEAN_MOTION":13.84314664,"ECCENTRICITY":0.0008251,"INCLINATION":81.302,"RA_OF_ASC_NODE":103.0603,"ARG_OF_PERICENTER":102.7158,"MEAN_ANOMALY":257.4922,"EPHEMERIS_TYPE":0,"CLASSIFICATION_TYPE":"U","NORAD_CAT_ID":65572,"ELEMENT_SET_NO":999,"REV_AT_EPOCH":2491,"BSTAR":0.00016281,"MEAN_MOTION_DOT":1.94e-6,"MEAN_MOTION_DDOT":0},{"OBJECT_NAME":"SDA_1680","OBJECT_ID":"2025-230S","EPOCH":"2026-03-09T23:22:27.829344","MEAN_MOTION":13.85216593,"ECCENTRICITY":0.00048476,"INCLINATION":81.3005,"RA_OF_ASC_NODE":303.6494,"ARG_OF_PERICENTER":103.2201,"MEAN_ANOMALY":256.9497,"EPHEMERIS_TYPE":0,"CLASSIFICATION_TYPE":"U","NORAD_CAT_ID":65990,"ELEMENT_SET_NO":999,"REV_AT_EPOCH":2008,"BSTAR":0.00016774776,"MEAN_MOTION_DOT":2.02e-6,"MEAN_MOTION_DDOT":0}]
